1 05508U 70025 LM 91326.81177646  .18964253 +19000-5 +29486-1 0  9996	2 05508 099.9094 053.3284 0017190 277.9187 094.5924 16.03738991109015	-29.357816203777702	1.7444172939731513	05508	THORAD AGENA D DEB      	US   	1970-04-08	1991-11-23	1991-11-23 11:00:00	  0.0308
1 05508U 70025 LM 91326.81177646  .18964253 +19000-5 +29486-1 0  9996	2 05508 099.9094 053.3284 0017190 277.9187 094.5924 16.03738991109015	-37.64224144054538	-0.8607262985789909	05508	THORAD AGENA D DEB      	US   	1970-04-08	1991-11-23	1991-11-23 11:02:00	  0.0308
1 05508U 70025 LM 91326.81177646  .18964253 +19000-5 +29486-1 0  9996	2 05508 099.9094 053.3284 0017190 277.9187 094.5924 16.03738991109015	-54.043410769956914	-8.056524022279152	05508	THORAD AGENA D DEB      	US   	1970-04-08	1991-11-23	1991-11-23 11:06:00	  0.0308
1 05510U 70025 LP 91077.24121509  .33409850 +00000-0 +0128401 0  9990	2 05510 099.8817 191.6088 0026942 301.2763 059.7115 15.86651184076638	-30.488782832210507	-64.34462352899469	05510	THORAD AGENA D DEB      	US   	1970-04-08	1991-03-18	1991-03-18 17:00:00	  0.0340
1 05510U 70025 LP 91077.24121509  .33409850 +00000-0 +0128401 0  9990	2 05510 099.8817 191.6088 0026942 301.2763 059.7115 15.86651184076638	-38.828112544621334	-67.01823960789365	05510	THORAD AGENA D DEB      	US   	1970-04-08	1991-03-18	1991-03-18 17:02:00	  0.0340
1 05510U 70025 LP 91077.24121509  .33409850 +00000-0 +0128401 0  9990	2 05510 099.8817 191.6088 0026942 301.2763 059.7115 15.86651184076638	-55.332981221106586	-74.5519860737419	05510	THORAD AGENA D DEB      	US   	1970-04-08	1991-03-18	1991-03-18 17:06:00	  0.0340
1 05517U 68097 CS 89046.28397459  .28614002 +37000-5 +87430-1 0  9993	2 05517 061.9441 075.6094 0058751 094.5926 265.8676 15.88500471317298	61.43441652743566	81.22990983658757	05517	COSMOS 252 DEB          	CIS  	1968-11-01	1989-02-15	1989-02-15 19:00:00	  0.0083
1 05517U 68097 CS 89046.28397459  .28614002 +37000-5 +87430-1 0  9993	2 05517 061.9441 075.6094 0058751 094.5926 265.8676 15.88500471317298	61.77761987285046	98.64883199384437	05517	COSMOS 252 DEB          	CIS  	1968-11-01	1989-02-15	1989-02-15 19:02:00	  0.0083
1 05517U 68097 CS 89046.28397459  .28614002 +37000-5 +87430-1 0  9993	2 05517 061.9441 075.6094 0058751 094.5926 265.8676 15.88500471317298	55.997135155620285	129.01970527041294	05517	COSMOS 252 DEB          	CIS  	1968-11-01	1989-02-15	1989-02-15 19:06:00	  0.0083
1 05520U 69082HZ  01284.68765978  .12214633  00000-0  95633-2 0  9998	2 05520 070.0222 024.9038 0013800 349.4859 010.6311 16.14237012677545	-3.7631550486947014	164.76387470665222	05520	THORAD AGENA D DEB      	US   	1969-09-30	2001-10-11	2001-10-12 13:00:00	  0.0079
1 05520U 69082HZ  01284.68765978  .12214633  00000-0  95633-2 0  9998	2 05520 070.0222 024.9038 0013800 349.4859 010.6311 16.14237012677545	4.185969371527878	167.1553015199921	05520	THORAD AGENA D DEB      	US   	1969-09-30	2001-10-11	2001-10-12 13:02:00	  0.0079
1 05520U 69082HZ  01284.68765978  .12214633  00000-0  95633-2 0  9998	2 05520 070.0222 024.9038 0013800 349.4859 010.6311 16.14237012677545	20.034314288575985	172.241920979819	05520	THORAD AGENA D DEB      	US   	1969-09-30	2001-10-11	2001-10-12 13:06:00	  0.0079
1 05525U 70089 CH 90345.24124725  .03591297 +00000-0 +12050-1 0  9994	2 05525 062.2356 063.3749 0054334 089.8019 270.9168 15.80354523017961	55.588198069633286	8.802351651340572	05525	COSMOS 374 DEB          	CIS  	1970-10-23	1990-12-14	1990-12-17 05:00:00	  0.0152
1 05525U 70089 CH 90345.24124725  .03591297 +00000-0 +12050-1 0  9994	2 05525 062.2356 063.3749 0054334 089.8019 270.9168 15.80354523017961	50.26787685716521	19.233401183858412	05525	COSMOS 374 DEB          	CIS  	1970-10-23	1990-12-14	1990-12-17 05:02:00	  0.0152
1 05525U 70089 CH 90345.24124725  .03591297 +00000-0 +12050-1 0  9994	2 05525 062.2356 063.3749 0054334 089.8019 270.9168 15.80354523017961	37.49239050524988	33.71816115858965	05525	COSMOS 374 DEB          	CIS  	1970-10-23	1990-12-14	1990-12-17 05:06:00	  0.0152
1 05526U 71015 BQ 89022.15535854  .04240215 +54000-5 +48274-2 0  9998	2 05526 065.7365 298.9582 0039567 316.7677 043.0394 16.07044743888263	5.570886275283167	-117.14732019093503	05526	COSMOS 397 DEB          	CIS  	1971-02-25	1989-01-23	1989-01-24 19:00:00	  0.0925
1 05526U 71015 BQ 89022.15535854  .04240215 +54000-5 +48274-2 0  9998	2 05526 065.7365 298.9582 0039567 316.7677 043.0394 16.07044743888263	13.234406762248486	-114.08551714074757	05526	COSMOS 397 DEB          	CIS  	1971-02-25	1989-01-23	1989-01-24 19:02:00	  0.0925
1 05526U 71015 BQ 89022.15535854  .04240215 +54000-5 +48274-2 0  9998	2 05526 065.7365 298.9582 0039567 316.7677 043.0394 16.07044743888263	28.360156084923325	-107.09485267618537	05526	COSMOS 397 DEB          	CIS  	1971-02-25	1989-01-23	1989-01-24 19:06:00	  0.0925
1 05530U 71015 BU 89222.34653364  .08599114 +00000-0 +31052-1 0  9993	2 05530 066.3823 201.5019 0029384 222.3439 138.2064 15.87553070958559	10.111533283144643	35.71219049054527	05530	COSMOS 397 DEB          	CIS  	1971-02-25	1989-08-11	1989-08-12 01:00:00	  0.0200
1 05530U 71015 BU 89222.34653364  .08599114 +00000-0 +31052-1 0  9993	2 05530 066.3823 201.5019 0029384 222.3439 138.2064 15.87553070958559	2.369903393161293	38.644151644610794	05530	COSMOS 397 DEB          	CIS  	1971-02-25	1989-08-11	1989-08-12 01:02:00	  0.0200
1 05530U 71015 BU 89222.34653364  .08599114 +00000-0 +31052-1 0  9993	2 05530 066.3823 201.5019 0029384 222.3439 138.2064 15.87553070958559	-13.113268234676433	44.52035463286952	05530	COSMOS 397 DEB          	CIS  	1971-02-25	1989-08-11	1989-08-12 01:06:00	  0.0200
1 05533U 71015BX  99303.35244953 +.10405991 +10101-1 +13971-1 0  9994	2 05533 065.5733 275.1444 0003575 011.5240 348.6052 16.18015633404704	62.74265730068156	11.78645276198268	05533	COSMOS 397 DEB          	CIS  	1971-02-25	1999-10-30	1999-10-30 19:00:00	  0.0600
1 05533U 71015BX  99303.35244953 +.10405991 +10101-1 +13971-1 0  9994	2 05533 065.5733 275.1444 0003575 011.5240 348.6052 16.18015633404704	65.2562488775163	29.857745069887613	05533	COSMOS 397 DEB          	CIS  	1971-02-25	1999-10-30	1999-10-30 19:02:00	  0.0600
1 05533U 71015BX  99303.35244953 +.10405991 +10101-1 +13971-1 0  9994	2 05533 065.5733 275.1444 0003575 011.5240 348.6052 16.18015633404704	62.49388132054219	67.54374070225609	05533	COSMOS 397 DEB          	CIS  	1971-02-25	1999-10-30	1999-10-30 19:06:00	  0.0600
1 05534U 71015 BY 90362.56685789  .21064341 +74202-5 +15220-1 0  9997	2 05534 066.1225 159.0167 0019962 348.5651 010.2965 16.15014093966070	41.694616580776035	151.47265443088756	05534	COSMOS 397 DEB          	CIS  	1971-02-25	1990-12-28	1990-12-30 04:00:00	  0.0231
1 05534U 71015 BY 90362.56685789  .21064341 +74202-5 +15220-1 0  9997	2 05534 066.1225 159.0167 0019962 348.5651 010.2965 16.15014093966070	34.46382998575287	156.5074737360491	05534	COSMOS 397 DEB          	CIS  	1971-02-25	1990-12-28	1990-12-30 04:02:00	  0.0231
1 05534U 71015 BY 90362.56685789  .21064341 +74202-5 +15220-1 0  9997	2 05534 066.1225 159.0167 0019962 348.5651 010.2965 16.15014093966070	19.450327991898018	164.19516583560028	05534	COSMOS 397 DEB          	CIS  	1971-02-25	1990-12-28	1990-12-30 04:06:00	  0.0231
1 05574U 68091CA  12305.40791142  .09582811  88019-5  52366-2 0  9993	2 05574 062.2095 320.8853 0014272 076.9598 283.3141 16.18925667214534	-3.008332273939786	-69.4096732514227	05574	COSMOS 249 DEB          	CIS  	1968-10-20	2012-10-31	2012-11-03 22:00:00	  0.0340
1 05574U 68091CA  12305.40791142  .09582811  88019-5  52366-2 0  9993	2 05574 062.2095 320.8853 0014272 076.9598 283.3141 16.18925667214534	4.4469201638628	-65.97799496711154	05574	COSMOS 249 DEB          	CIS  	1968-10-20	2012-10-31	2012-11-03 22:02:00	  0.0340
1 05574U 68091CA  12305.40791142  .09582811  88019-5  52366-2 0  9993	2 05574 062.2095 320.8853 0014272 076.9598 283.3141 16.18925667214534	19.255237298634945	-58.72688855930758	05574	COSMOS 249 DEB          	CIS  	1968-10-20	2012-10-31	2012-11-03 22:06:00	  0.0340
1 05576U 71091  D 83204.23166249  .11871250 +27257-4 +15558-2 0  9999	2 05576 103.2664 006.4588 0021477 327.9329 033.1665 16.34740024597820	-10.332562473554487	-93.88215908530836	05576	DELTA 1 DEB             	US   	1971-10-21	1983-07-23	1983-07-25 11:00:00	  0.0536
1 05576U 71091  D 83204.23166249  .11871250 +27257-4 +15558-2 0  9999	2 05576 103.2664 006.4588 0021477 327.9329 033.1665 16.34740024597820	-2.1354712371657687	-96.34192194129422	05576	DELTA 1 DEB             	US   	1971-10-21	1983-07-23	1983-07-25 11:02:00	  0.0536
1 05576U 71091  D 83204.23166249  .11871250 +27257-4 +15558-2 0  9999	2 05576 103.2664 006.4588 0021477 327.9329 033.1665 16.34740024597820	14.267587279881512	-101.28260074912546	05576	DELTA 1 DEB             	US   	1971-10-21	1983-07-23	1983-07-25 11:06:00	  0.0536
1 05591U 71015BZ  01346.17007899  .05872288  00000-0  82307-2 0  9991	2 05591 065.4816 271.7740 0019826 102.1965 258.2268 16.05019737968937	63.814498396564154	-141.78132633831314	05591	COSMOS 397 DEB          	CIS  	1971-02-25	2001-12-13	2001-12-14 05:00:00	  0.0133
1 05591U 71015BZ  01346.17007899  .05872288  00000-0  82307-2 0  9991	2 05591 065.4816 271.7740 0019826 102.1965 258.2268 16.05019737968937	59.94197921265285	-126.19253970878292	05591	COSMOS 397 DEB          	CIS  	1971-02-25	2001-12-13	2001-12-14 05:02:00	  0.0133
1 05591U 71015BZ  01346.17007899  .05872288  00000-0  82307-2 0  9991	2 05591 065.4816 271.7740 0019826 102.1965 258.2268 16.05019737968937	48.25166307078539	-105.89384587290867	05591	COSMOS 397 DEB          	CIS  	1971-02-25	2001-12-13	2001-12-14 05:06:00	  0.0133
1 05600U 70025 LR 90105.24129991  .47355127 +00000-0 +37246-1 0  9994	2 05600 099.9829 211.1613 0033602 282.2490 077.9329 15.83810214693441	22.611303681286778	-166.8806322927092	05600	THORAD AGENA D DEB      	US   	1970-04-08	1990-04-16	1990-04-17 00:00:00	  0.0350
